STARLINK-1267_new
1 15384C 20019AA  21326.15278130 -.00002040  00000-0 -13666-3 0  3264
2 15384  53.0553 348.0477 0001627  64.3469 231.9219 15.06406946    17
STARLINK-1267_old
1 25384C 20019AA  21325.12047546 -.00000249  00000-0 -16666-4 0  3257
2 25384  53.0555 352.6819 0001639  64.3590  30.5883 15.06396492    12
